start=new Date('2023-02-27T00:00:00.000Z').valueOf();
sats=[{"REV_AT_EPOCH":"10835","SEMIMAJOR_AXIS":"6925.324","RCS_SIZE":"LARGE","EPOCH":"2023-02-26T17:21:43.933824","REF_FRAME":"TEME","PERIAPSIS":"546.270","EPHEMERIS_TYPE":"0","PERIOD":"95.592","GP_ID":"227065359","MEAN_MOTION":"15.06408169","COUNTRY_CODE":"US","ECCENTRICITY":"0.00013260","MEAN_MOTION_DOT":"0.00007675","OBJECT_NAME":"STARLINK-2296","RA_OF_ASC_NODE":"216.2240","SITE":"AFETR","ELEMENT_SET_NO":"999","ARG_OF_PERICENTER":"85.5911","INCLINATION":"53.0512","MEAN_ANOMALY":"274.5230","CENTER_NAME":"EARTH","OBJECT_TYPE":"PAYLOAD","APOAPSIS":"548.107","CLASSIFICATION_TYPE":"U","DECAY_DATE":null,"LAUNCH_DATE":"2021-03-24","TLE_LINE1":"1 47998U 21024X   23057.72342516  .00007675  00000-0  53346-3 0  9992","FILE":"3843368","MEAN_MOTION_DDOT":"0.0000000000000","BSTAR":"0.00053346000000","TLE_LINE2":"2 47998  53.0512 216.2240 0001326  85.5911 274.5230 15.06408169108353","OBJECT_ID":"2021-024X","MEAN_ELEMENT_THEORY":"SGP4","TIME_SYSTEM":"UTC","NORAD_CAT_ID":"47998"},{"APOAPSIS":"548.142","CLASSIFICATION_TYPE":"U","CENTER_NAME":"EARTH","OBJECT_TYPE":"PAYLOAD","TLE_LINE1":"1 47999U 21024Y   23057.67364819  .00016065  00000-0  10944-2 0  9996","DECAY_DATE":null,"LAUNCH_DATE":"2021-03-24","MEAN_MOTION_DDOT":"0.0000000000000","FILE":"3842742","TLE_LINE2":"2 47999  53.0547 186.2064 0001423  64.5215 295.5922 15.06418673108299","BSTAR":"0.00109440000000","TIME_SYSTEM":"UTC","MEAN_ELEMENT_THEORY":"SGP4","NORAD_CAT_ID":"47999","OBJECT_ID":"2021-024Y","SEMIMAJOR_AXIS":"6925.291","RCS_SIZE":"LARGE","EPOCH":"2023-02-26T16:10:03.203616","REF_FRAME":"TEME","REV_AT_EPOCH":"10829","PERIOD":"95.591","PERIAPSIS":"546.171","EPHEMERIS_TYPE":"0","ECCENTRICITY":"0.00014230","COUNTRY_CODE":"US","MEAN_MOTION_DOT":"0.00016065","OBJECT_NAME":"STARLINK-2218","GP_ID":"227032096","MEAN_MOTION":"15.06418673","SITE":"AFETR","RA_OF_ASC_NODE":"186.2064","ELEMENT_SET_NO":"999","ARG_OF_PERICENTER":"64.5215","MEAN_ANOMALY":"295.5922","INCLINATION":"53.0547"},{"REV_AT_EPOCH":"10897","SEMIMAJOR_AXIS":"6925.388","RCS_SIZE":"LARGE","EPOCH":"2023-02-26T14:29:54.081024","REF_FRAME":"TEME","PERIAPSIS":"546.267","EPHEMERIS_TYPE":"0","PERIOD":"95.593","GP_ID":"227064858","MEAN_MOTION":"15.06387161","ECCENTRICITY":"0.00014230","COUNTRY_CODE":"US","OBJECT_NAME":"STARLINK-2270","MEAN_MOTION_DOT":"0.00023243","SITE":"AFETR","ELEMENT_SET_NO":"999","RA_OF_ASC_NODE":"171.7227","ARG_OF_PERICENTER":"100.6196","INCLINATION":"53.0531","MEAN_ANOMALY":"259.4953","CENTER_NAME":"EARTH","OBJECT_TYPE":"PAYLOAD","APOAPSIS":"548.238","CLASSIFICATION_TYPE":"U","DECAY_DATE":null,"LAUNCH_DATE":"2021-03-24","TLE_LINE1":"1 48000U 21024Z   23057.60409816  .00023243  00000-0  15747-2 0  9992","MEAN_MOTION_DDOT":"0.0000000000000","FILE":"3843368","BSTAR":"0.00157470000000","TLE_LINE2":"2 48000  53.0531 171.7227 0001423 100.6196 259.4953 15.06387161108971","OBJECT_ID":"2021-024Z","TIME_SYSTEM":"UTC","MEAN_ELEMENT_THEORY":"SGP4","NORAD_CAT_ID":"48000"},{"APOAPSIS":"548.124","CLASSIFICATION_TYPE":"U","OBJECT_TYPE":"PAYLOAD","CENTER_NAME":"EARTH","TLE_LINE1":"1 48002U 21024AB  23057.76444071  .00031497  00000-0  21234-2 0  9991","LAUNCH_DATE":"2021-03-24","DECAY_DATE":null,"TLE_LINE2":"2 48002  53.0516 191.1177 0001358  92.8247 267.2897 15.06409723108706","BSTAR":"0.00212340000000","MEAN_MOTION_DDOT":"0.0000000000000","FILE":"3843368","NORAD_CAT_ID":"48002","TIME_SYSTEM":"UTC","MEAN_ELEMENT_THEORY":"SGP4","OBJECT_ID":"2021-024AB","REF_FRAME":"TEME","SEMIMAJOR_AXIS":"6925.319","RCS_SIZE":"LARGE","EPOCH":"2023-02-26T18:20:47.677344","REV_AT_EPOCH":"10870","PERIOD":"95.592","EPHEMERIS_TYPE":"0","PERIAPSIS":"546.243","OBJECT_NAME":"STARLINK-2265","MEAN_MOTION_DOT":"0.00031497","ECCENTRICITY":"0.00013580","COUNTRY_CODE":"US","MEAN_MOTION":"15.06409723","GP_ID":"227065108","MEAN_ANOMALY":"267.2897","INCLINATION":"53.0516","RA_OF_ASC_NODE":"191.1177","SITE":"AFETR","ELEMENT_SET_NO":"999","ARG_OF_PERICENTER":"92.8247"},{"MEAN_MOTION":"15.06411699","GP_ID":"227022949","MEAN_MOTION_DOT":"-0.00003956","OBJECT_NAME":"STARLINK-2263","ECCENTRICITY":"0.00011000","COUNTRY_CODE":"US","MEAN_ANOMALY":"269.2391","INCLINATION":"53.0518","ARG_OF_PERICENTER":"90.8724","SITE":"AFETR","RA_OF_ASC_NODE":"266.7481","ELEMENT_SET_NO":"999","REV_AT_EPOCH":"10715","REF_FRAME":"TEME","SEMIMAJOR_AXIS":"6925.313","RCS_SIZE":"LARGE","EPOCH":"2023-02-26T13:16:11.978688","EPHEMERIS_TYPE":"0","PERIAPSIS":"546.416","PERIOD":"95.591","TLE_LINE2":"2 48003  53.0518 266.7481 0001100  90.8724 269.2391 15.06411699107153","BSTAR":"-0.00024679000000","FILE":"3842406","MEAN_MOTION_DDOT":"0.0000000000000","OBJECT_ID":"2021-024AC","NORAD_CAT_ID":"48003","TIME_SYSTEM":"UTC","MEAN_ELEMENT_THEORY":"SGP4","OBJECT_TYPE":"PAYLOAD","CENTER_NAME":"EARTH","APOAPSIS":"547.939","CLASSIFICATION_TYPE":"U","LAUNCH_DATE":"2021-03-24","DECAY_DATE":null,"TLE_LINE1":"1 48003U 21024AC  23057.55291642 -.00003956  00000-0 -24679-3 0  9991"},{"APOAPSIS":"548.002","CLASSIFICATION_TYPE":"U","OBJECT_TYPE":"PAYLOAD","CENTER_NAME":"EARTH","TLE_LINE1":"1 48005U 21024AE  23057.79529062  .00008158  00000-0  56593-3 0  9996","LAUNCH_DATE":"2021-03-24","DECAY_DATE":null,"BSTAR":"0.00056593000000","TLE_LINE2":"2 48005  53.0533 235.6581 0001136  77.5784 282.5332 15.06399375107626","MEAN_MOTION_DDOT":"0.0000000000000","FILE":"3842390","NORAD_CAT_ID":"48005","MEAN_ELEMENT_THEORY":"SGP4","TIME_SYSTEM":"UTC","OBJECT_ID":"2021-024AE","REF_FRAME":"TEME","SEMIMAJOR_AXIS":"6925.350","RCS_SIZE":"LARGE","EPOCH":"2023-02-26T19:05:13.109568","REV_AT_EPOCH":"10762","PERIOD":"95.592","EPHEMERIS_TYPE":"0","PERIAPSIS":"546.429","OBJECT_NAME":"STARLINK-2254","MEAN_MOTION_DOT":"0.00008158","COUNTRY_CODE":"US","ECCENTRICITY":"0.00011360","MEAN_MOTION":"15.06399375","GP_ID":"227023458","INCLINATION":"53.0533","MEAN_ANOMALY":"282.5332","ELEMENT_SET_NO":"999","SITE":"AFETR","RA_OF_ASC_NODE":"235.6581","ARG_OF_PERICENTER":"77.5784"},{"FILE":"3843368","MEAN_MOTION_DDOT":"0.0000000000000","BSTAR":"0.00110660000000","TLE_LINE2":"2 48008  53.0524 170.8605 0001534  97.4533 262.6630 15.06429595108990","MEAN_ELEMENT_THEORY":"SGP4","TIME_SYSTEM":"UTC","NORAD_CAT_ID":"48008","OBJECT_ID":"2021-024AH","APOAPSIS":"548.185","CLASSIFICATION_TYPE":"U","CENTER_NAME":"EARTH","OBJECT_TYPE":"PAYLOAD","TLE_LINE1":"1 48008U 21024AH  23057.75054630  .00016253  00000-0  11066-2 0  9999","DECAY_DATE":null,"LAUNCH_DATE":"2021-03-24","ECCENTRICITY":"0.00015340","COUNTRY_CODE":"US","OBJECT_NAME":"STARLINK-2271","MEAN_MOTION_DOT":"0.00016253","GP_ID":"227064358","MEAN_MOTION":"15.06429595","SITE":"AFETR","RA_OF_ASC_NODE":"170.8605","ARG_OF_PERICENTER":"97.4533","ELEMENT_SET_NO":"999","MEAN_ANOMALY":"262.6630","INCLINATION":"53.0524","RCS_SIZE":"LARGE","SEMIMAJOR_AXIS":"6925.258","EPOCH":"2023-02-26T18:00:47.200320","REF_FRAME":"TEME","REV_AT_EPOCH":"10899","PERIOD":"95.590","PERIAPSIS":"546.061","EPHEMERIS_TYPE":"0"},{"PERIOD":"95.591","EPHEMERIS_TYPE":"0","PERIAPSIS":"546.577","REF_FRAME":"TEME","SEMIMAJOR_AXIS":"6925.317","RCS_SIZE":"LARGE","EPOCH":"2023-02-26T19:25:05.731104","REV_AT_EPOCH":"10795","INCLINATION":"53.0514","MEAN_ANOMALY":"289.2722","SITE":"AFETR","ARG_OF_PERICENTER":"70.8361","ELEMENT_SET_NO":"999","RA_OF_ASC_NODE":"245.6001","MEAN_MOTION_DOT":"0.00003326","OBJECT_NAME":"STARLINK-2153","COUNTRY_CODE":"US","ECCENTRICITY":"0.00008730","MEAN_MOTION":"15.06410359","GP_ID":"227064608","TLE_LINE1":"1 48009U 21024AJ  23057.80909411  .00003326  00000-0  24202-3 0  9996","LAUNCH_DATE":"2021-03-24","DECAY_DATE":null,"APOAPSIS":"547.786","CLASSIFICATION_TYPE":"U","OBJECT_TYPE":"PAYLOAD","CENTER_NAME":"EARTH","NORAD_CAT_ID":"48009","TIME_SYSTEM":"UTC","MEAN_ELEMENT_THEORY":"SGP4","OBJECT_ID":"2021-024AJ","TLE_LINE2":"2 48009  53.0514 245.6001 0000873  70.8361 289.2722 15.06410359107950","BSTAR":"0.00024202000000","FILE":"3843368","MEAN_MOTION_DDOT":"0.0000000000000"},{"CLASSIFICATION_TYPE":"U","APOAPSIS":"547.908","OBJECT_TYPE":"PAYLOAD","CENTER_NAME":"EARTH","TLE_LINE1":"1 48010U 21024AK  23057.02585653  .00005677  00000-0  39976-3 0  9995","LAUNCH_DATE":"2021-03-24","DECAY_DATE":null,"TLE_LINE2":"2 48010  53.0513 269.1178 0000981  93.8592 266.2509 15.06395124107554","BSTAR":"0.00039976000000","MEAN_MOTION_DDOT":"0.0000000000000","FILE":"3841853","NORAD_CAT_ID":"48010","TIME_SYSTEM":"UTC","MEAN_ELEMENT_THEORY":"SGP4","OBJECT_ID":"2021-024AK","REF_FRAME":"TEME","EPOCH":"2023-02-26T00:37:14.004192","RCS_SIZE":"LARGE","SEMIMAJOR_AXIS":"6925.364","REV_AT_EPOCH":"10755","PERIOD":"95.592","EPHEMERIS_TYPE":"0","PERIAPSIS":"546.549","MEAN_MOTION_DOT":"0.00005677","OBJECT_NAME":"STARLINK-2226","ECCENTRICITY":"0.00009810","COUNTRY_CODE":"US","MEAN_MOTION":"15.06395124","GP_ID":"227004954","MEAN_ANOMALY":"266.2509","INCLINATION":"53.0513","ARG_OF_PERICENTER":"93.8592","SITE":"AFETR","RA_OF_ASC_NODE":"269.1178","ELEMENT_SET_NO":"999"},{"REV_AT_EPOCH":"10802","REF_FRAME":"TEME","EPOCH":"2023-02-26T21:52:21.454752","SEMIMAJOR_AXIS":"6925.315","RCS_SIZE":"LARGE","EPHEMERIS_TYPE":"0","PERIAPSIS":"546.338","PERIOD":"95.591","MEAN_MOTION":"15.06410951","GP_ID":"227065580","OBJECT_NAME":"STARLINK-2272","MEAN_MOTION_DOT":"0.00004222","COUNTRY_CODE":"US","ECCENTRICITY":"0.00012160","INCLINATION":"53.0515","MEAN_ANOMALY":"272.2270","SITE":"AFETR","ELEMENT_SET_NO":"999","RA_OF_ASC_NODE":"245.1396","ARG_OF_PERICENTER":"87.8859","OBJECT_TYPE":"PAYLOAD","CENTER_NAME":"EARTH","CLASSIFICATION_TYPE":"U","APOAPSIS":"548.022","LAUNCH_DATE":"2021-03-24","DECAY_DATE":null,"TLE_LINE1":"1 48011U 21024AL  23057.91135943  .00004222  00000-0  30207-3 0  9990","BSTAR":"0.00030207000000","TLE_LINE2":"2 48011  53.0515 245.1396 0001216  87.8859 272.2270 15.06410951108025","MEAN_MOTION_DDOT":"0.0000000000000","FILE":"3843368","OBJECT_ID":"2021-024AL","NORAD_CAT_ID":"48011","TIME_SYSTEM":"UTC","MEAN_ELEMENT_THEORY":"SGP4"}];
